SWARM B                 
1 39451U 13067A   26168.59211468  .00002772  00000+0  98564-4 0  9991
2 39451  87.7438 342.1933 0003273  85.6173 274.5450 15.28553505683307
SWARM A                 
1 39452U 13067B   26168.47775497  .00008498  00000+0  14594-3 0  9997
2 39452  87.3321  56.1340 0003009  95.0495 265.1110 15.50958386706292
SWARM C                 
1 39453U 13067C   26168.47764212  .00008332  00000+0  14310-3 0  9994
2 39453  87.3321  54.7150 0003002  95.1482 265.0122 15.50956607706258
BRITE-CA1 (TORONTO)     
1 40020U 14033L   26168.58134024  .00000574  00000+0  94199-4 0  9998
2 40020  97.9740 297.5019 0077216 275.7297  83.5111 14.72677156642275
OCO 2                   
1 40059U 14035A   26168.56749927  .00000309  00000+0  78580-4 0  9996
2 40059  98.2017 109.8547 0001503  84.9219 275.2151 14.57111452636103
BRITE-PL2 (HEWELIUSZ)   
1 40119U 14049B   26168.30625382  .00001474  00000+0  14142-3 0  9995
2 40119  97.9098 280.3071 0015286 108.1430 252.1456 14.94593461641461
MMS 1                   
1 40482U 15011A   26168.58334491 -.00000758  00000+0  00000+0 0  9995
2 40482  72.2005 348.7760 8325141 167.4676 338.9027  0.28316329  1380
MMS 2                   
1 40483U 15011B   26168.58334491 -.00000758  00000+0  00000+0 0  9996
2 40483  72.2007 348.7782 8325927 167.4732 338.8915  0.28316304  1380
MMS 3                   
1 40484U 15011C   26168.58334491 -.00000758  00000+0  00000+0 0  9997
2 40484  72.1998 348.7785 8324719 167.4756 338.8754  0.28316309  1382
MMS 4                   
1 40485U 15011D   26168.58334491 -.00000757  00000+0  00000+0 0  9997
2 40485  72.1995 348.7789 8324658 167.4761 338.8747  0.28317364  1386
ASTROSAT                
1 40930U 15052A   26168.02421202  .00001422  00000+0  91470-4 0  9998
2 40930   5.9955 156.5222 0007811  29.1364 330.9199 14.82507303579802
DAMPE                   
1 41173U 15078A   26168.62598493  .00000892  00000+0  32539-4 0  9990
2 41173  97.4549 174.0949 0013800  75.5186 284.7585 15.30785762584611
PISAT                   
1 41784U 16059B   26168.48459062  .00000656  00000+0  11936-3 0  9995
2 41784  97.8179 168.9246 0028407 201.7782 158.2218 14.68983786519788
HXMT (HUIYAN)           
1 42758U 17034A   26168.52902116  .00002022  00000+0  10687-3 0  9990
2 42758  43.0125 181.1377 0030628 149.3559 210.9086 15.18478619497710
FLYING LAPTOP           
1 42831U 17042G   26168.58547089  .00002893  00000+0  22936-3 0  9997
2 42831  97.4686 324.1025 0019596 120.3447 239.9718 15.01148097486517
ZHANGHENG 1-01 (CSES-1) 
1 43194U 18015C   26168.59956343  .00005805  00000+0  26556-3 0  9997
2 43194  97.6872 334.2647 0017051 264.8321  95.0968 15.20815473464705
SALSAT                  
1 46495U 20068K   26168.53797512  .00006219  00000+0  21821-3 0  9990
2 46495  97.8847 171.6239 0008040 306.6544  53.3955 15.29803905315418
IXPE                    
1 49954U 21121A   26168.66668981  .00009426  00000+0  50399-3 0  9990
2 49954   0.2302 314.0330 0007487  86.6983 321.9287 15.10252801  5631
SMILE                   
1 69123U 26109A   26158.38327019 -.00000041  00000+0 -36778-3 0  9994
2 69123  69.9787 209.3069 3310191 288.5544  45.7342  7.54049028  2480
