OBJECT_NAME,OBJECT_ID,EPOCH,MEAN_MOTION,ECCENTRICITY,INCLINATION,RA_OF_ASC_NODE,ARG_OF_PERICENTER,MEAN_ANOMALY,EPHEMERIS_TYPE,CLASSIFICATION_TYPE,NORAD_CAT_ID,ELEMENT_SET_NO,REV_AT_EPOCH,BSTAR,MEAN_MOTION_DOT,MEAN_MOTION_DDOT
SWARM B,2013-067A,2026-06-17T14:12:38.708352,15.28553505,.00032737,87.7438,342.1933,85.6173,274.5450,0,U,39451,999,68330,.98564341E-4,.2772E-4,0
SWARM A,2013-067B,2026-06-17T11:27:58.029408,15.50958386,.00030095,87.3321,56.1340,95.0495,265.1110,0,U,39452,999,70629,.14594316E-3,.8498E-4,0
SWARM C,2013-067C,2026-06-17T11:27:48.279168,15.50956607,.0003002,87.3321,54.7150,95.1482,265.0122,0,U,39453,999,70625,.14309747E-3,.8332E-4,0
BRITE-CA1 (TORONTO),2014-033L,2026-06-17T13:57:07.796736,14.72677156,.00772163,97.9740,297.5019,275.7297,83.5111,0,U,40020,999,64227,.94198516E-4,.574E-5,0
OCO 2,2014-035A,2026-06-17T13:37:11.936928,14.57111452,.00015034,98.2017,109.8547,84.9219,275.2151,0,U,40059,999,63610,.78580457E-4,.309E-5,0
BRITE-PL2 (HEWELIUSZ),2014-049B,2026-06-17T07:21:00.330048,14.94593461,.00152868,97.9098,280.3071,108.1430,252.1456,0,U,40119,999,64146,.14142479E-3,.1474E-4,0
MMS 1,2015-011A,2026-06-17T14:00:01.000224,0.28316329,.83251418,72.2005,348.7760,167.4676,338.9027,0,U,40482,999,138,0,-.758E-5,0
MMS 2,2015-011B,2026-06-17T14:00:01.000224,0.28316304,.83259271,72.2007,348.7782,167.4732,338.8915,0,U,40483,999,138,0,-.758E-5,0
MMS 3,2015-011C,2026-06-17T14:00:01.000224,0.28316309,.83247196,72.1998,348.7785,167.4756,338.8754,0,U,40484,999,138,0,-.758E-5,0
MMS 4,2015-011D,2026-06-17T14:00:01.000224,0.28317364,.83246581,72.1995,348.7789,167.4761,338.8747,0,U,40485,999,138,0,-.757E-5,0
ASTROSAT,2015-052A,2026-06-17T00:34:51.918528,14.82507303,.00078112,5.9955,156.5222,29.1364,330.9199,0,U,40930,999,57980,.9146995E-4,.1422E-4,0
DAMPE,2015-078A,2026-06-17T15:01:25.097952,15.30785762,.00138006,97.4549,174.0949,75.5186,284.7585,0,U,41173,999,58461,.32538644E-4,.892E-5,0
PISAT,2016-059B,2026-06-17T11:37:48.629568,14.68983786,.00284077,97.8179,168.9246,201.7782,158.2218,0,U,41784,999,51978,.11936225E-3,.656E-5,0
HXMT (HUIYAN),2017-034A,2026-06-17T12:41:47.428224,15.18478619,.00306289,43.0125,181.1377,149.3559,210.9086,0,U,42758,999,49771,.10687434E-3,.2022E-4,0
FLYING LAPTOP,2017-042G,2026-06-17T14:03:04.684896,15.01148097,.00195966,97.4686,324.1025,120.3447,239.9718,0,U,42831,999,48651,.22936421E-3,.2893E-4,0
ZHANGHENG 1-01 (CSES-1),2018-015C,2026-06-17T14:23:22.280352,15.20815473,.0017051,97.6872,334.2647,264.8321,95.0968,0,U,43194,999,46470,.26555614E-3,.5805E-4,0
SALSAT,2020-068K,2026-06-17T12:54:41.050368,15.29803905,.00080404,97.8847,171.6239,306.6544,53.3955,0,U,46495,999,31541,.21820696E-3,.6219E-4,0
IXPE,2021-121A,2026-06-17T16:00:01.999584,15.10252801,.00074876,0.2302,314.0330,86.6983,321.9287,0,U,49954,999,563,.5039868E-3,.9426E-4,0
SMILE,2026-109A,2026-06-07T09:11:54.544416,7.54049028,.3310191,69.9787,209.3069,288.5544,45.7342,0,U,69123,999,248,-.36778157E-3,-.41E-6,0
